GLOBALSTAR M035         
1 25851U 99037A   24282.65337868 -.00000072  00000+0 -31884-3 0  9990
2 25851  51.9933 255.9091 0013736 296.5107 234.7179 11.04533083 68469
GLOBALSTAR M032         
1 25852U 99037B   24282.79641013 -.00000081  00000+0 -44647-3 0  9997
2 25852  51.9927  98.1264 0011606 103.4114 256.7980 11.19063833106644
GLOBALSTAR M051         
1 25853U 99037C   24283.15538035 -.00000082  00000+0 -24753-3 0  9995
2 25853  51.9791 286.4752 0001309 116.5433 243.5512 11.42200485103729
GLOBALSTAR M030         
1 25854U 99037D   24282.87323328 -.00000059  00000+0  33554-3 0  9993
2 25854  51.9850 109.2381 0003222 328.2194  31.8428 11.55102562121105
GLOBALSTAR M048         
1 25872U 99041A   24282.27412972 -.00000023  00000+0  12844-2 0  9995
2 25872  51.9356 213.8934 0013574 105.7934  52.1237 11.33850134 96402
GLOBALSTAR M026         
1 25873U 99041B   24282.65427567 -.00000076  00000+0 -42578-3 0  9991
2 25873  52.0054  16.5068 0001650 167.1266 340.5144 11.06830366120637
GLOBALSTAR M043         
1 25874U 99041C   24282.82059575 -.00000092  00000+0 -69729-3 0  9996
2 25874  51.9415 310.2251 0012952 242.7292 288.2883 11.25683045 94562
GLOBALSTAR M028         
1 25875U 99041D   24282.86990909 -.00000074  00000+0  16658-3 0  9998
2 25875  51.9617 222.4395 0062834 245.8038 113.6246 12.50566104158735
